[Satellite]
VERSION=1.1
NAME=NOAA 11 [-]
NICKNAME=NOAA 11 [-]
TLE1=1 19531U 88089A   17186.15046270 -.00000014  00000-0  14196-4 0  9991
TLE2=2 19531  98.5501 243.8835 0010954 352.8139   7.2876 14.15210214485044
